{
    "links": {
        "self": "http://www.neowsapp.com/rest/v1/neo/3144513?api_key=iIulBulltgU6a56xZRHN4H3l9WmuAYTsLGpBGhQ2"
    },
    "id": "3144513",
    "neo_reference_id": "3144513",
    "name": "(2002 XO40)",
    "designation": "2002 XO40",
    "nasa_jpl_url": "http://ssd.jpl.nasa.gov/sbdb.cgi?sstr=3144513",
    "absolute_magnitude_h": 20.7,
    "estimated_diameter": {
        "kilometers": {
            "estimated_diameter_min": 0.1925550782,
            "estimated_diameter_max": 0.4305662442
        },
        "meters": {
            "estimated_diameter_min": 192.5550781879,
            "estimated_diameter_max": 430.566244241
        },
        "miles": {
            "estimated_diameter_min": 0.1196481415,
            "estimated_diameter_max": 0.2675413778
        },
        "feet": {
            "estimated_diameter_min": 631.7424027221,
            "estimated_diameter_max": 1412.6189567557
        }
    },
    "is_potentially_hazardous_asteroid": false,
    "close_approach_data": [
        {
            "close_approach_date": "2002-12-10",
            "close_approach_date_full": "2002-Dec-10 11:30",
            "epoch_date_close_approach": 1039519800000,
            "relative_velocity": {
                "kilometers_per_second": "28.4710020484",
                "kilometers_per_hour": "102495.6073741914",
                "miles_per_hour": "63686.7844820358"
            },
            "miss_distance": {
                "astronomical": "0.0983430103",
                "lunar": "38.2554310067",
                "kilometers": "14711904.870268061",
                "miles": "9141553.7869028018"
            },
            "orbiting_body": "Earth"
        }
    ],
    "orbital_data": {
        "orbit_id": "10",
        "orbit_determination_date": "2017-04-06 09:14:31",
        "first_observation_date": "2002-12-11",
        "last_observation_date": "2003-01-29",
        "data_arc_in_days": 49,
        "observations_used": 61,
        "orbit_uncertainty": "7",
        "minimum_orbit_intersection": ".0953771",
        "jupiter_tisserand_invariant": "2.824",
        "epoch_osculation": "2459000.5",
        "eccentricity": ".5948456526136684",
        "semi_major_axis": "2.479256931020912",
        "inclination": "49.21709806494354",
        "ascending_node_longitude": "260.5463457975724",
        "orbital_period": "1425.872624110335",
        "perihelion_distance": "1.004481723890817",
        "perihelion_argument": "143.3265500714834",
        "aphelion_distance": "3.954032138151007",
        "perihelion_time": "2458292.942614066111",
        "mean_anomaly": "178.6419450300699",
        "mean_motion": ".2524769701814144",
        "equinox": "J2000",
        "orbit_class": {
            "orbit_class_type": "APO",
            "orbit_class_description": "Near-Earth asteroid orbits which cross the Earth’s orbit similar to that of 1862 Apollo",
            "orbit_class_range": "a (semi-major axis) > 1.0 AU; q (perihelion) < 1.017 AU"
        }
    },
    "is_sentry_object": false
}